{
    "links": {
        "self": "http://www.neowsapp.com/rest/v1/neo/3137846?api_key=iIulBulltgU6a56xZRHN4H3l9WmuAYTsLGpBGhQ2"
    },
    "id": "3137846",
    "neo_reference_id": "3137846",
    "name": "(2002 TR67)",
    "designation": "2002 TR67",
    "nasa_jpl_url": "http://ssd.jpl.nasa.gov/sbdb.cgi?sstr=3137846",
    "absolute_magnitude_h": 22.7,
    "estimated_diameter": {
        "kilometers": {
            "estimated_diameter_min": 0.0766575574,
            "estimated_diameter_max": 0.1714115092
        },
        "meters": {
            "estimated_diameter_min": 76.6575573531,
            "estimated_diameter_max": 171.4115092306
        },
        "miles": {
            "estimated_diameter_min": 0.0476327831,
            "estimated_diameter_max": 0.1065101409
        },
        "feet": {
            "estimated_diameter_min": 251.5011804664,
            "estimated_diameter_max": 562.3737359442
        }
    },
    "is_potentially_hazardous_asteroid": false,
    "close_approach_data": [
        {
            "close_approach_date": "1998-10-21",
            "close_approach_date_full": "1998-Oct-21 16:02",
            "epoch_date_close_approach": 908985720000,
            "relative_velocity": {
                "kilometers_per_second": "18.7859149548",
                "kilometers_per_hour": "67629.2938372487",
                "miles_per_hour": "42022.2131623727"
            },
            "miss_distance": {
                "astronomical": "0.4571898283",
                "lunar": "177.8468432087",
                "kilometers": "68394624.499345721",
                "miles": "42498448.9846281098"
            },
            "orbiting_body": "Earth"
        },
        {
            "close_approach_date": "2000-10-08",
            "close_approach_date_full": "2000-Oct-08 03:17",
            "epoch_date_close_approach": 970975020000,
            "relative_velocity": {
                "kilometers_per_second": "12.747588946",
                "kilometers_per_hour": "45891.3202055374",
                "miles_per_hour": "28515.0817132685"
            },
            "miss_distance": {
                "astronomical": "0.2306187997",
                "lunar": "89.7107130833",
                "kilometers": "34500081.217076639",
                "miles": "21437356.4048660582"
            },
            "orbiting_body": "Earth"
        },
        {
            "close_approach_date": "2002-09-20",
            "close_approach_date_full": "2002-Sep-20 04:53",
            "epoch_date_close_approach": 1032497580000,
            "relative_velocity": {
                "kilometers_per_second": "8.2080683887",
                "kilometers_per_hour": "29549.0461991904",
                "miles_per_hour": "18360.6281786025"
            },
            "miss_distance": {
                "astronomical": "0.039909377",
                "lunar": "15.524747653",
                "kilometers": "5970357.79222699",
                "miles": "3709808.305992862"
            },
            "orbiting_body": "Earth"
        },
        {
            "close_approach_date": "2004-08-18",
            "close_approach_date_full": "2004-Aug-18 13:59",
            "epoch_date_close_approach": 1092837540000,
            "relative_velocity": {
                "kilometers_per_second": "9.325307411",
                "kilometers_per_hour": "33571.1066797416",
                "miles_per_hour": "20859.7801477539"
            },
            "miss_distance": {
                "astronomical": "0.202543875",
                "lunar": "78.789567375",
                "kilometers": "30300132.28154625",
                "miles": "18827629.15098825"
            },
            "orbiting_body": "Earth"
        },
        {
            "close_approach_date": "2006-07-22",
            "close_approach_date_full": "2006-Jul-22 18:05",
            "epoch_date_close_approach": 1153591500000,
            "relative_velocity": {
                "kilometers_per_second": "15.0881967344",
                "kilometers_per_hour": "54317.5082437288",
                "miles_per_hour": "33750.7872751102"
            },
            "miss_distance": {
                "astronomical": "0.4024111484",
                "lunar": "156.5379367276",
                "kilometers": "60199850.664893908",
                "miles": "37406452.6429076104"
            },
            "orbiting_body": "Earth"
        }
    ],
    "orbital_data": {
        "orbit_id": "10",
        "orbit_determination_date": "2017-04-06 09:14:45",
        "first_observation_date": "2002-09-19",
        "last_observation_date": "2002-10-29",
        "data_arc_in_days": 40,
        "observations_used": 24,
        "orbit_uncertainty": "7",
        "minimum_orbit_intersection": ".0402677",
        "jupiter_tisserand_invariant": "4.327",
        "epoch_osculation": "2459000.5",
        "eccentricity": ".3416756742824481",
        "semi_major_axis": "1.568280726628857",
        "inclination": "11.97036691007565",
        "ascending_node_longitude": "180.5803714635152",
        "orbital_period": "717.3550082761795",
        "perihelion_distance": "1.032437351893775",
        "perihelion_argument": "161.1942479628495",
        "aphelion_distance": "2.104124101363939",
        "perihelion_time": "2458980.952837505786",
        "mean_anomaly": "9.809617855498335",
        "mean_motion": ".5018435723549045",
        "equinox": "J2000",
        "orbit_class": {
            "orbit_class_type": "AMO",
            "orbit_class_description": "Near-Earth asteroid orbits similar to that of 1221 Amor",
            "orbit_class_range": "1.017 AU < q (perihelion) < 1.3 AU"
        }
    },
    "is_sentry_object": false
}